BEIDOU 3 (C01)          
1 36287U 10001A   22301.62966219 -.00000271  00000+0  00000+0 0  9996
2 36287   1.7425  48.7595 0000648 288.6503  66.6850  1.00273588 46842
BEIDOU 5 (C06)          
1 36828U 10036A   22301.59686221 -.00000077  00000+0  00000+0 0  9997
2 36828  54.1972 175.0137 0030237 184.9598 358.7170  1.00260205 44915
BEIDOU 6 (C04)          
1 37210U 10057A   22301.63129422 -.00000103  00000+0  00000+0 0  9996
2 37210   0.7883  42.5983 0007221 157.1157 224.5538  1.00272287 43972
BEIDOU 7 (C07)          
1 37256U 10068A   22301.40123843 -.00000195  00000+0  00000+0 0  9995
2 37256  49.9781 288.0533 0023370 206.9825 153.7670  1.00264862 43486
BEIDOU 8 (C08)          
1 37384U 11013A   22301.28731734 -.00000190  00000+0  00000+0 0  9993
2 37384  60.4866  52.9493 0024633 180.5506  14.8878  1.00272622 42354
BEIDOU 9 (C09)          
1 37763U 11038A   22301.59644757 -.00000020  00000+0  00000+0 0  9995
2 37763  54.4774 177.5199 0098349 227.1712 299.1131  1.00254320 41337
BEIDOU 10 (C10)         
1 37948U 11073A   22300.32033351 -.00000148  00000+0  00000+0 0  9992
2 37948  50.0944 287.7119 0086625 220.4228  98.0698  1.00264164 40072
BEIDOU 11 (C05)         
1 38091U 12008A   22301.63590896  .00000066  00000+0  00000+0 0  9996
2 38091   1.8622  70.2803 0008872 332.6914 281.7240  1.00268429 39160
BEIDOU 12 (C11)         
1 38250U 12018A   22301.33823859 -.00000068  00000+0  00000+0 0  9992
2 38250  56.6502 349.1711 0024315 252.0536 132.0404  1.86234429 71560
BEIDOU 13 (C12)         
1 38251U 12018B   22299.12405491 -.00000062  00000+0  00000+0 0  9998
2 38251  56.5667 348.5598 0015051 252.5881 131.1289  1.86234180 71524
BEIDOU 15 (C14)         
1 38775U 12050B   22301.20546557  .00000054  00000+0  00000+0 0  9997
2 38775  55.4800 107.2177 0011106 333.9300 201.0363  1.86231336 68933
BEIDOU 16 (C02)         
1 38953U 12059A   22300.59424448 -.00000163  00000+0  00000+0 0  9991
2 38953   1.2477  81.6244 0024052 294.0882 318.1066  1.00274755 36726
BEIDOU 17 (C31)         
1 40549U 15019A   22301.45944796 -.00000162  00000+0  00000+0 0  9992
2 40549  51.6567 311.2073 0038427 199.5968 146.8268  1.00268373 27769
BEIDOU 18 (C57)         
1 40748U 15037A   22301.34044112 -.00000067  00000+0  00000+0 0  9998
2 40748  55.8149 347.2715 0001314 333.8466   5.1408  1.86233453 49385
BEIDOU 19 (C58)         
1 40749U 15037B   22299.55327020 -.00000063  00000+0  00000+0 0  9996
2 40749  55.8202 347.3230 0004357 294.0132  60.9013  1.86233038 49343
BEIDOU 20 (C18)         
1 40938U 15053A   22301.39888403 -.00000132  00000+0  00000+0 0  9994
2 40938  51.2995 274.3418 0045264 200.6029 160.8588  1.00262100 26046
BEIDOU IGSO-6 (C13)     
1 41434U 16021A   22301.29132313 -.00000149  00000+0  00000+0 0  9991
2 41434  58.2963  51.4638 0046431 216.0630 326.8807  1.00257924 24161
BEIDOU-2 G7 (C03)       
1 41586U 16037A   22301.53733017 -.00000345  00000+0  00000+0 0  9999
2 41586   1.6694  68.7404 0008075 353.6364 278.4875  1.00274210 23475
BEIDOU-3 M1 (C19)       
1 43001U 17069A   22301.25240425  .00000054  00000+0  00000+0 0  9990
2 43001  55.6325 107.2342 0007252 292.8612  69.9610  1.86231669 33875
BEIDOU-3 M2 (C20)       
1 43002U 17069B   22301.45188317  .00000054  00000+0  00000+0 0  9994
2 43002  55.6322 107.2635 0005574 326.4115 212.9897  1.86231325 33860
BEIDOU-3 M3 (C27)       
1 43107U 18003A   22301.50150418 -.00000070  00000+0  00000+0 0  9995
2 43107  55.2680 348.1244 0003301  65.5067 313.4980  1.86232547 32635
BEIDOU-3 M4 (C28)       
1 43108U 18003B   22301.41362088 -.00000070  00000+0  00000+0 0  9994
2 43108  55.2612 348.1159 0004213 245.0879 118.1329  1.86230972 32632
BEIDOU-3 M5 (C21)       
1 43207U 18018A   22300.24213091  .00000058  00000+0  00000+0 0  9994
2 43207  55.5909 107.3777 0004097   9.7685 350.2563  1.86231556 31991
BEIDOU-3 M6 (C22)       
1 43208U 18018B   22300.84576457  .00000055  00000+0  00000+0 0  9996
2 43208  55.5900 107.3618 0005196 309.2625  50.7053  1.86231577 32002
BEIDOU-3 M7 (C29)       
1 43245U 18029A   22301.12403529 -.00000067  00000+0  00000+0 0  9994
2 43245  55.1764 345.8970 0001278 230.9147 165.5500  1.86232716 31167
BEIDOU-3 M8 (C30)       
1 43246U 18029B   22301.09949458 -.00000067  00000+0  10000-3 0  9992
2 43246  55.1736 345.9263 0003139 342.6350  84.0215  1.86232968 31154
BEIDOU IGSO-7 (C16)     
1 43539U 18057A   22301.54443230 -.00000086  00000+0  00000+0 0  9991
2 43539  55.0889 174.5549 0051282 226.4110 306.3719  1.00269934 15841
BEIDOU-3 M9 (C23)       
1 43581U 18062A   22301.49122925  .00000026  00000+0  00000+0 0  9996
2 43581  54.2422 227.5325 0004613 290.2581 250.3981  1.86232015 28904
BEIDOU-3 M10 (C24)      
1 43582U 18062B   22301.35772541  .00000027  00000+0  00000+0 0  9998
2 43582  54.2426 227.5260 0005820 358.2583 184.8507  1.86232514 28904
BEIDOU-3 M11 (C25)      
1 43602U 18067A   22301.29005788  .00000028  00000+0  00000+0 0  9992
2 43602  54.3258 226.1555 0007376   8.0999 170.7091  1.86231566 28393
BEIDOU-3 M12 (C26)      
1 43603U 18067B   22301.33616683  .00000027  00000+0  00000+0 0  9999
2 43603  54.3226 226.1203 0004605 355.5934 124.4799  1.86231507 28419
BEIDOU-3 M13 (C32)      
1 43622U 18072A   22299.27959889  .00000062  00000+0  00000+0 0  9992
2 43622  55.5582 106.9602 0004054 285.6151 284.5642  1.86231641 27882
BEIDOU-3 M14 (C33)      
1 43623U 18072B   22300.97618858  .00000054  00000+0  00000+0 0  9992
2 43623  55.5612 106.8957 0002412 338.4090  19.4934  1.86231641 27917
BEIDOU-3 M15 (C34)      
1 43647U 18078A   22301.15047063 -.00000067  00000+0  10000-3 0  9999
2 43647  55.0708 346.0415 0005356 354.5655  15.9045  1.86232753 27433
BEIDOU-3 M16 (C35)      
1 43648U 18078B   22300.73382785 -.00000066  00000+0  00000+0 0  9990
2 43648  55.0677 346.0636 0002986   8.4484 350.2114  1.86232296 27439
BEIDOU-3 G1 (C59)       
1 43683U 18085A   22301.51271075 -.00000268  00000+0  00000+0 0  9997
2 43683   1.0526 146.3543 0004367  55.1122 160.0062  1.00269335 14742
BEIDOU-3 M17 (C36)      
1 43706U 18093A   22300.88624798  .00000028  00000+0  00000+0 0  9998
2 43706  54.3238 227.4492 0009499 283.5153  76.4011  1.86231798 26805
BEIDOU-3 M18 (C37)      
1 43707U 18093B   22301.02303051  .00000028  00000+0  00000+0 0  9992
2 43707  54.3252 227.4341 0008766 305.6805 237.2923  1.86232342 26794
BEIDOU-3 IGSO-1 (C38)   
1 44204U 19023A   22300.78168889 -.00000220  00000+0  00000+0 0  9994
2 44204  56.7584  51.5572 0024112 190.5721 194.9230  1.00269841 13048
BEIDOU-2 G8             
1 44231U 19027A   22301.62966219 -.00000237  00000+0  00000+0 0  9993
2 44231   1.1794  79.5990 0006355 123.3019 205.2968  1.00273759 12756
BEIDOU-3 IGSO-2 (C39)   
1 44337U 19035A   22301.54810640 -.00000084  00000+0  00000+0 0  9996
2 44337  55.1260 170.5407 0025548 189.5111 353.3246  1.00263617 12382
BEIDOU-3 M23 (C45)      
1 44542U 19061A   22300.82260746  .00000028  00000+0  00000+0 0  9996
2 44542  54.5505 227.6193 0008927 342.3505  17.6400  1.86231466 21056
BEIDOU-3 M24 (C46)      
1 44543U 19061B   22301.22350421  .00000028  00000+0  00000+0 0  9992
2 44543  54.5504 227.5740 0006246 327.7072 212.5471  1.86231991 21058
BEIDOU-3 IGSO-3         
1 44709U 19073A   22300.65612370 -.00000175  00000+0  10000-3 0  9998
2 44709  57.0498 295.0086 0027082 183.5528 273.5267  1.00269020 11127
BEIDOU-3 M21            
1 44793U 19078A   22300.66068997 -.00000066  00000+0  10000-3 0  9996
2 44793  54.9203 346.0655 0004933   8.8552 346.9316  1.86232326 19902
BEIDOU-3 M22            
1 44794U 19078B   22301.34744225 -.00000068  00000+0  00000+0 0  9995
2 44794  54.8941 346.0301 0002953 358.5197   9.5951  1.86232803 19928
BEIDOU-3 M19            
1 44864U 19090A   22301.31077218  .00000053  00000+0  00000+0 0  9998
2 44864  55.4945 107.0958 0014889 268.2438 269.6352  1.86231891 19500
BEIDOU-3 M20            
1 44865U 19090B   22301.07478985  .00000054  00000+0  00000+0 0  9999
2 44865  55.4962 107.1359 0012841 283.8966 185.6110  1.86231816 19473
BEIDOU-3 G2             
1 45344U 20017A   22301.46759795 -.00000134  00000+0  00000+0 0  9997
2 45344   2.0071 358.9484 0003169 173.8510 112.3837  1.00272574  9942
BEIDOU-3 G3             
1 45807U 20040A   22301.53851451 -.00000346  00000+0  00000+0 0  9992
2 45807   1.1522 308.1792 0008480 339.6532  53.4362  1.00275192  8770
